OBJECT_NAME,OBJECT_ID,EPOCH,MEAN_MOTION,ECCENTRICITY,INCLINATION,RA_OF_ASC_NODE,ARG_OF_PERICENTER,MEAN_ANOMALY,EPHEMERIS_TYPE,CLASSIFICATION_TYPE,NORAD_CAT_ID,ELEMENT_SET_NO,REV_AT_EPOCH,BSTAR,MEAN_MOTION_DOT,MEAN_MOTION_DDOT
QIANFAN-238,2026-155V,2026-07-15T20:29:27.873312,14.26784933,.00301664,89.0066,60.8712,221.6388,138.2509,0,U,69867,999,147,.89789955E-4,.233E-5,0
CZ-8A R/B,2026-155W,2026-07-15T21:49:26.023008,14.48269621,.01059494,88.9659,60.8119,100.4235,260.8932,0,U,69868,999,149,.9957561E-5,.59E-6,0
STARLINK-37886,2026-157A,2026-07-15T22:00:01.999584,15.89596665,.0000948,53.1609,292.2777,65.0398,151.3667,0,U,69943,999,227,-.78698813E-2,-.2053333E-1,0
STARLINK-37937,2026-157B,2026-07-15T22:00:01.999584,15.89657603,.00008905,53.1609,292.2750,66.3118,151.3867,0,U,69944,999,227,-.7802653E-2,-.2043639E-1,0
STARLINK-37903,2026-157C,2026-07-15T22:00:01.999584,15.90104019,.00009244,53.1609,292.2578,54.3082,171.6733,0,U,69945,999,227,-.74713068E-2,-.2007931E-1,0
STARLINK-37905,2026-157D,2026-07-15T22:00:01.999584,15.90946995,.00011667,53.1608,292.2304,82.7907,156.2607,0,U,69946,999,227,-.72923531E-2,-.2325145E-1,.14296705E-2
STARLINK-37904,2026-157E,2026-07-15T22:00:01.999584,15.91107943,.00008456,53.1607,292.2258,62.8755,178.4712,0,U,69947,999,227,-.71578657E-2,-.2301383E-1,.14043117E-2
STARLINK-37891,2026-157F,2026-07-15T22:00:01.999584,15.91230939,.00010383,53.1606,292.2182,70.0076,174.9928,0,U,69948,999,227,-.72088687E-2,-.2332178E-1,.14421749E-2
STARLINK-37923,2026-157G,2026-07-15T22:00:01.999584,15.91913265,.00009595,53.1607,292.1941,68.3183,188.2322,0,U,69949,999,227,-.69600971E-2,-.2332422E-1,.14528093E-2
STARLINK-37895,2026-157H,2026-07-15T22:00:01.999584,15.92192250,.00011353,53.1606,292.1835,82.6988,178.9203,0,U,69950,999,227,-.68640708E-2,-.2333834E-1,.14587859E-2
STARLINK-37841,2026-157J,2026-07-15T22:00:01.999584,15.92615695,.00010784,53.1604,292.1692,81.8839,186.6211,0,U,69951,999,227,-.67074451E-2,-.23315E-1,.14625656E-2
STARLINK-37899,2026-157K,2026-07-15T22:00:01.999584,15.93047217,.00008085,53.1603,292.1530,64.5980,211.6071,0,U,69952,999,227,-.65274421E-2,-.2320869E-1,.14565401E-2
STARLINK-37900,2026-157L,2026-07-15T22:00:01.999584,15.93177845,.00008366,53.1602,292.1483,65.1843,213.2808,0,U,69953,999,227,-.64499517E-2,-.2309247E-1,.14446431E-2
STARLINK-37882,2026-157M,2026-07-15T22:00:01.999584,15.93589800,.00007885,53.1602,292.1349,63.4496,221.4903,0,U,69954,999,227,-.62524461E-2,-.2287914E-1,.14255447E-2
STARLINK-37928,2026-157N,2026-07-15T22:00:01.999584,15.93546009,.00007914,53.1601,292.1314,63.7378,222.9597,0,U,69955,999,227,-.63366821E-2,-.2313112E-1,.14550334E-2
STARLINK-37824,2026-157P,2026-07-15T22:00:01.999584,15.93577481,.00008114,53.1600,292.1298,62.6440,224.8061,0,U,69956,999,227,-.6305025E-2,-.2305471E-1,.14463396E-2
STARLINK-37919,2026-157Q,2026-07-15T22:00:01.999584,15.93556295,.00009888,53.1601,292.1268,73.3732,215.4823,0,U,69957,999,227,-.63313625E-2,-.2312474E-1,.1454427E-2
STARLINK-37964,2026-157R,2026-07-15T22:00:01.999584,15.93828465,.00009892,53.1601,292.1191,75.3447,217.1612,0,U,69958,999,227,-.61756541E-2,-.2288581E-1,.14300198E-2
STARLINK-37907,2026-157S,2026-07-15T22:00:01.999584,15.94188971,.00009584,53.1599,292.1076,68.4303,229.5321,0,U,69959,999,227,-.60083761E-2,-.2269838E-1,.14132353E-2
STARLINK-37901,2026-157T,2026-07-15T22:00:01.999584,15.94394607,.0000995,53.1598,292.0992,74.3355,227.7377,0,U,69960,999,227,-.59600905E-2,-.2276353E-1,.1424181E-2
STARLINK-37910,2026-157U,2026-07-15T22:00:01.999584,15.94725670,.00009361,53.1596,292.0866,74.9792,233.0996,0,U,69961,999,227,-.58687351E-2,-.2281433E-1,.143546E-2
STARLINK-37925,2026-157V,2026-07-15T22:00:01.999584,15.94755769,.00009069,53.1596,292.0833,71.4526,238.2873,0,U,69962,999,227,-.58484012E-2,-.2277236E-1,.14308826E-2
STARLINK-37931,2026-157W,2026-07-15T22:00:01.999584,15.94823303,.00006926,53.1595,292.0765,65.6207,247.4259,0,U,69963,999,227,-.58920789E-2,-.2302269E-1,.14622578E-2
STARLINK-37914,2026-157X,2026-07-15T22:00:01.999584,15.95483666,.00007946,53.1594,292.0553,61.9487,261.1694,0,U,69964,999,227,-.56374156E-2,-.2282737E-1,.14491328E-2
STARLINK-37840,2026-157Y,2026-07-15T22:00:01.999584,15.95722112,.00006999,53.1594,292.0458,58.9613,268.7437,0,U,69965,999,227,-.55826981E-2,-.2289874E-1,.14617282E-2
STARLINK-37894,2026-157Z,2026-07-15T22:00:01.999584,15.95733205,.00007351,53.1592,292.0409,84.3020,245.6465,0,U,69966,999,227,-.56298094E-2,-.2310395E-1,.1487194E-2
STARLINK-37875,2026-157AA,2026-07-15T22:00:01.999584,15.96092982,.0000794,53.1591,292.0292,68.6521,266.9023,0,U,69967,999,227,-.54820782E-2,-.2294371E-1,.14733815E-2
STARLINK-36218,2026-157AB,2026-07-15T22:00:01.999584,15.96584258,.0000774,53.1588,292.0177,62.2001,278.7177,0,U,69968,999,192,-.52183014E-2,-.2243893E-1,.14196429E-2
STARLINK-37921,2026-157AC,2026-07-15T22:00:01.999584,15.97170829,.00011186,53.1591,291.9948,49.0660,302.8489,0,U,69969,999,227,-.50373213E-2,-.2237247E-1,.14210238E-2
