QIANFAN-238             
1 69867U 26155V   26196.85379483  .00000233  00000+0  89790-4 0  9990
2 69867  89.0066  60.8712 0030166 221.6388 138.2509 14.26784933  1474
CZ-8A R/B               
1 69868U 26155W   26196.90932897  .00000059  00000+0  99576-5 0  9991
2 69868  88.9659  60.8119 0105949 100.4235 260.8932 14.48269621  1499
STARLINK-37886          
1 69943U 26157A   26196.91668981 -.02053333  00000+0 -78699-2 0  9995
2 69943  53.1609 292.2777 0000948  65.0398 151.3667 15.89596665  2275
STARLINK-37937          
1 69944U 26157B   26196.91668981 -.02043639  00000+0 -78027-2 0  9999
2 69944  53.1609 292.2750 0000890  66.3118 151.3867 15.89657603  2279
STARLINK-37903          
1 69945U 26157C   26196.91668981 -.02007931  00000+0 -74713-2 0  9993
2 69945  53.1609 292.2578 0000924  54.3082 171.6733 15.90104019  2270
STARLINK-37905          
1 69946U 26157D   26196.91668981 -.02325145  14297-2 -72924-2 0  9992
2 69946  53.1608 292.2304 0001166  82.7907 156.2607 15.90946995  2273
STARLINK-37904          
1 69947U 26157E   26196.91668981 -.02301383  14043-2 -71579-2 0  9995
2 69947  53.1607 292.2258 0000845  62.8755 178.4712 15.91107943  2270
STARLINK-37891          
1 69948U 26157F   26196.91668981 -.02332178  14422-2 -72089-2 0  9990
2 69948  53.1606 292.2182 0001038  70.0076 174.9928 15.91230939  2270
STARLINK-37923          
1 69949U 26157G   26196.91668981 -.02332422  14528-2 -69601-2 0  9996
2 69949  53.1607 292.1941 0000959  68.3183 188.2322 15.91913265  2270
STARLINK-37895          
1 69950U 26157H   26196.91668981 -.02333834  14588-2 -68641-2 0  9995
2 69950  53.1606 292.1835 0001135  82.6988 178.9203 15.92192250  2270
STARLINK-37841          
1 69951U 26157J   26196.91668981 -.02331500  14626-2 -67074-2 0  9996
2 69951  53.1604 292.1692 0001078  81.8839 186.6211 15.92615695  2270
STARLINK-37899          
1 69952U 26157K   26196.91668981 -.02320869  14565-2 -65274-2 0  9995
2 69952  53.1603 292.1530 0000808  64.5980 211.6071 15.93047217  2279
STARLINK-37900          
1 69953U 26157L   26196.91668981 -.02309247  14446-2 -64500-2 0  9992
2 69953  53.1602 292.1483 0000836  65.1843 213.2808 15.93177845  2279
STARLINK-37882          
1 69954U 26157M   26196.91668981 -.02287914  14255-2 -62524-2 0  9991
2 69954  53.1602 292.1349 0000788  63.4496 221.4903 15.93589800  2277
STARLINK-37928          
1 69955U 26157N   26196.91668981 -.02313112  14550-2 -63367-2 0  9996
2 69955  53.1601 292.1314 0000791  63.7378 222.9597 15.93546009  2274
STARLINK-37824          
1 69956U 26157P   26196.91668981 -.02305471  14463-2 -63050-2 0  9998
2 69956  53.1600 292.1298 0000811  62.6440 224.8061 15.93577481  2271
STARLINK-37919          
1 69957U 26157Q   26196.91668981 -.02312474  14544-2 -63314-2 0  9993
2 69957  53.1601 292.1268 0000988  73.3732 215.4823 15.93556295  2270
STARLINK-37964          
1 69958U 26157R   26196.91668981 -.02288581  14300-2 -61757-2 0  9994
2 69958  53.1601 292.1191 0000989  75.3447 217.1612 15.93828465  2278
STARLINK-37907          
1 69959U 26157S   26196.91668981 -.02269838  14132-2 -60084-2 0  9994
2 69959  53.1599 292.1076 0000958  68.4303 229.5321 15.94188971  2273
STARLINK-37901          
1 69960U 26157T   26196.91668981 -.02276353  14242-2 -59601-2 0  9991
2 69960  53.1598 292.0992 0000995  74.3355 227.7377 15.94394607  2270
STARLINK-37910          
1 69961U 26157U   26196.91668981 -.02281433  14355-2 -58687-2 0  9995
2 69961  53.1596 292.0866 0000936  74.9792 233.0996 15.94725670  2270
STARLINK-37925          
1 69962U 26157V   26196.91668981 -.02277236  14309-2 -58484-2 0  9996
2 69962  53.1596 292.0833 0000906  71.4526 238.2873 15.94755769  2272
STARLINK-37931          
1 69963U 26157W   26196.91668981 -.02302269  14623-2 -58921-2 0  9997
2 69963  53.1595 292.0765 0000692  65.6207 247.4259 15.94823303  2279
STARLINK-37914          
1 69964U 26157X   26196.91668981 -.02282737  14491-2 -56374-2 0  9998
2 69964  53.1594 292.0553 0000794  61.9487 261.1694 15.95483666  2277
STARLINK-37840          
1 69965U 26157Y   26196.91668981 -.02289874  14617-2 -55827-2 0  9990
2 69965  53.1594 292.0458 0000699  58.9613 268.7437 15.95722112  2273
STARLINK-37894          
1 69966U 26157Z   26196.91668981 -.02310395  14872-2 -56298-2 0  9990
2 69966  53.1592 292.0409 0000735  84.3020 245.6465 15.95733205  2274
STARLINK-37875          
1 69967U 26157AA  26196.91668981 -.02294371  14734-2 -54821-2 0  9993
2 69967  53.1591 292.0292 0000794  68.6521 266.9023 15.96092982  2277
STARLINK-36218          
1 69968U 26157AB  26196.91668981 -.02243893  14196-2 -52183-2 0  9998
2 69968  53.1588 292.0177 0000774  62.2001 278.7177 15.96584258  1921
STARLINK-37921          
1 69969U 26157AC  26196.91668981 -.02237247  14210-2 -50373-2 0  9991
2 69969  53.1591 291.9948 0001118  49.0660 302.8489 15.97170829  2277
